NORAD_CAT_ID,OBJECT_NAME,OBJECT_TYPE,EPOCH,MEAN_MOTION,ECCENTRICITY,INCLINATION,RA_OF_ASC_NODE,ARG_OF_PERICENTER,MEAN_ANOMALY,BSTAR,MEAN_MOTION_DOT,MEAN_MOTION_DDOT,TLE_LINE0,TLE_LINE1,TLE_LINE2,SEMIMAJOR_AXIS,PERIOD,APOGEE,PERIGEE,DECAYED
54051.0,STARLINK-5195,PAYLOAD,2024-02-28 17:49:32,15.0884883,0.0001494,53.2152,66.1164,87.9556,272.1607,0.0001257,1.714e-05,0.0,0 STARLINK-5195,1 54051U 22136A   24059.74273844  .00001714  00000-0  12570-3 0  9999,2 54051  53.2152  66.1164 0001494  87.9556 272.1607 15.08848830 75616,6917.853,95.437,540.752,538.685,0.0
54051.0,STARLINK-5195,PAYLOAD,2024-02-29 06:32:37,15.08851124,0.0001578,53.2157,63.7361,98.6244,261.4927,0.00015131,2.122e-05,0.0,0 STARLINK-5195,1 54051U 22136A   24060.27265619  .00002122  00000-0  15131-3 0  9990,2 54051  53.2157  63.7361 0001578  98.6244 261.4927 15.08851124 75211,6917.846,95.437,540.803,538.62,0.0
54051.0,STARLINK-5195,PAYLOAD,2024-02-29 17:40:19,15.08843675,0.0001419,53.2156,61.6555,92.6813,267.4341,7.826e-05,9.58e-06,0.0,0 STARLINK-5195,1 54051U 22136A   24060.73633881  .00000958  00000-0  78260-4 0  9999,2 54051  53.2156  61.6555 0001419  92.6813 267.4341 15.08843675 75760,6917.869,95.437,540.716,538.753,0.0
54051.0,STARLINK-5195,PAYLOAD,2024-03-01 06:23:25,15.08840656,0.0001554,53.2167,59.2778,90.3393,269.7777,0.0001067,1.411e-05,0.0,0 STARLINK-5195,1 54051U 22136A   24061.26626241  .00001411  00000-0  10670-3 0  9995,2 54051  53.2167  59.2778 0001554  90.3393 269.7777 15.08840656 75360,6917.878,95.438,540.818,538.668,0.0
54051.0,STARLINK-5195,PAYLOAD,2024-03-02 06:14:11,15.08850519,0.0001621,53.2175,54.817,93.5405,266.5773,0.00018548,2.666e-05,0.0,0 STARLINK-5195,1 54051U 22136A   24062.25985714  .00002666  00000-0  18548-3 0  9993,2 54051  53.2175  54.8170 0001621  93.5405 266.5773 15.08850519 75517,6917.848,95.437,540.835,538.592,0.0
54051.0,STARLINK-5195,PAYLOAD,2024-03-03 06:04:59,15.08841835,0.000163,53.2176,50.3574,99.8168,260.3008,0.00012637,1.724e-05,0.0,0 STARLINK-5195,1 54051U 22136A   24063.25346123  .00001724  00000-0  12637-3 0  9996,2 54051  53.2176  50.3574 0001630  99.8168 260.3008 15.08841835 76146,6917.875,95.437,540.867,538.612,0.0
54051.0,STARLINK-5195,PAYLOAD,2024-03-03 09:15:45,15.08844899,0.0001525,53.217,49.7611,96.1989,263.9177,0.00013005,1.783e-05,0.0,0 STARLINK-5195,1 54051U 22136A   24063.38593937  .00001783  00000-0  13005-3 0  9992,2 54051  53.2170  49.7611 0001525  96.1989 263.9177 15.08844899 75685,6917.865,95.437,540.785,538.675,0.0
54051.0,STARLINK-5195,PAYLOAD,2024-03-04 05:55:46,15.08841688,0.0001645,53.218,45.8988,106.2113,253.906,2.1714e-05,5.8e-07,0.0,0 STARLINK-5195,1 54051U 22136A   24064.24706040  .00000058  00000-0  21714-4 0  9990,2 54051  53.2180  45.8988 0001645 106.2113 253.9060 15.08841688 75813,6917.875,95.437,540.878,538.602,0.0
54051.0,STARLINK-5195,PAYLOAD,2024-03-04 15:28:04,15.08841876,0.0001411,53.2172,44.1128,96.0629,264.0524,3.0382e-05,1.96e-06,0.0,0 STARLINK-5195,1 54051U 22136A   24064.64450031  .00000196  00000-0  30382-4 0  9994,2 54051  53.2172  44.1128 0001411  96.0629 264.0524 15.08841876 76358,6917.875,95.437,540.716,538.764,0.0
54051.0,STARLINK-5195,PAYLOAD,2024-03-05 02:35:47,15.08829011,0.0002157,53.2178,42.0285,84.2145,275.9093,-7.8929e-05,-1.544e-05,0.0,0 STARLINK-5195,1 54051U 22136A   24065.10819154 -.00001544  00000-0 -78929-4 0  9990,2 54051  53.2178  42.0285 0002157  84.2145 275.9093 15.08829011 76422,6917.914,95.438,541.271,538.287,0.0
54051.0,STARLINK-5195,PAYLOAD,2024-03-05 08:57:20,15.08832584,0.0001675,53.2185,40.839,85.4967,274.6217,2.1083e-06,-2.54e-06,0.0,0 STARLINK-5195,1 54051U 22136A   24065.37315162 -.00000254  00000-0  21083-5 0  9995,2 54051  53.2185  40.8390 0001675  85.4967 274.6217 15.08832584 75985,6917.903,95.438,540.927,538.609,0.0
54051.0,STARLINK-5195,PAYLOAD,2024-03-05 15:18:52,15.08838397,0.0001632,53.2188,39.6498,86.5385,273.5794,0.00011119,1.482e-05,0.0,0 STARLINK-5195,1 54051U 22136A   24065.63810998  .00001482  00000-0  11119-3 0  9991,2 54051  53.2188  39.6498 0001632  86.5385 273.5794 15.08838397 76507,6917.885,95.438,540.879,538.621,0.0
54051.0,STARLINK-5195,PAYLOAD,2024-03-06 07:12:43,15.08856222,0.0001582,53.2178,36.6761,85.6088,274.5085,0.00058981,9.115e-05,0.0,0 STARLINK-5195,1 54051U 22136A   24066.30050566  .00009115  00000-0  58981-3 0  9992,2 54051  53.2178  36.6761 0001582  85.6088 274.5085 15.08856222 76602,6917.831,95.437,540.79,538.601,0.0
54051.0,STARLINK-5195,PAYLOAD,2024-03-07 07:03:29,15.08830062,0.0001688,53.2176,32.2156,83.4619,276.6565,-0.0011143,-0.00017974,0.0,0 STARLINK-5195,1 54051U 22136A   24067.29408816 -.00017974  00000-0 -11143-2 0  9998,2 54051  53.2176  32.2156 0001688  83.4619 276.6565 15.08830062 76276,6917.911,95.438,540.944,538.608,0.0
54051.0,STARLINK-5195,PAYLOAD,2024-03-08 02:08:08,15.08830902,0.0001755,53.2178,28.6469,87.2313,272.888,0.0011763,0.00018478,0.0,0 STARLINK-5195,1 54051U 22136A   24068.08898436  .00018478  00000-0  11763-2 0  9993,2 54051  53.2178  28.6469 0001755  87.2313 272.8880 15.08830902 76879,6917.908,95.438,540.987,538.559,0.0
54051.0,STARLINK-5195,PAYLOAD,2024-03-08 03:43:31,15.08833663,0.0001762,53.2176,28.3498,86.6178,273.5015,0.0011977,0.00018821,0.0,0 STARLINK-5195,1 54051U 22136A   24068.15522467  .00018821  00000-0  11977-2 0  9998,2 54051  53.2176  28.3498 0001762  86.6178 273.5015 15.08833663 76400,6917.9,95.438,540.984,538.546,0.0
54051.0,STARLINK-5195,PAYLOAD,2024-03-08 21:12:46,15.08836422,0.0002184,53.2184,25.078,96.931,263.193,0.00042934,6.551e-05,0.0,0 STARLINK-5195,1 54051U 22136A   24068.88386769  .00006551  00000-0  42934-3 0  9996,2 54051  53.2184  25.0780 0002184  96.9310 263.1930 15.08836422 76517,6917.891,95.438,541.267,538.245,0.0
54051.0,STARLINK-5195,PAYLOAD,2024-03-09 03:34:18,15.08836894,0.0001601,53.2182,23.89,96.6563,263.4611,0.00071185,0.00011058,0.0,0 STARLINK-5195,1 54051U 22136A   24069.14882853  .00011058  00000-0  71185-3 0  9999,2 54051  53.2182  23.8900 0001601  96.6563 263.4611 15.08836894 77035,6917.89,95.438,540.862,538.647,0.0
54051.0,STARLINK-5195,PAYLOAD,2024-03-09 06:45:05,15.08838205,0.0001782,53.2186,23.2959,93.9641,266.1555,0.0016111,0.00025444,0.0,0 STARLINK-5195,1 54051U 22136A   24069.28131104  .00025444  00000-0  16111-2 0  9991,2 54051  53.2186  23.2959 0001782  93.9641 266.1555 15.08838205 76577,6917.886,95.438,540.984,538.518,0.0
54051.0,STARLINK-5195,PAYLOAD,2024-03-10 03:25:06,15.08843508,0.0001665,53.2187,19.4285,86.7352,273.383,0.00076021,0.00011833,0.0,0 STARLINK-5195,1 54051U 22136A   24070.14243478  .00011833  00000-0  76021-3 0  9990,2 54051  53.2187  19.4285 0001665  86.7352 273.3830 15.08843508 77182,6917.87,95.437,540.886,538.583,0.0
54051.0,STARLINK-5195,PAYLOAD,2024-03-10 20:54:20,15.08844161,0.0001651,53.2184,16.1585,86.5512,273.5669,0.00037169,5.633e-05,0.0,0 STARLINK-5195,1 54051U 22136A   24070.87107469  .00005633  00000-0  37169-3 0  9990,2 54051  53.2184  16.1585 0001651  86.5512 273.5669 15.08844161 77297,6917.868,95.437,540.875,538.591,0.0
54051.0,STARLINK-5195,PAYLOAD,2024-03-11 12:48:11,15.0885556,0.0001572,53.2193,13.1866,89.4837,270.6336,0.00043371,6.624e-05,0.0,0 STARLINK-5195,1 54051U 22136A   24071.53346862  .00006624  00000-0  43371-3 0  9999,2 54051  53.2193  13.1866 0001572  89.4837 270.6336 15.08855560 76912,6917.833,95.437,540.785,538.61,0.0
54051.0,STARLINK-5195,PAYLOAD,2024-03-12 04:42:03,15.08839181,0.000158,53.2193,10.2141,89.8814,270.236,2.7393e-05,1.48e-06,0.0,0 STARLINK-5195,1 54051U 22136A   24072.19587423  .00000148  00000-0  27393-4 0  9994,2 54051  53.2193  10.2141 0001580  89.8814 270.2360 15.08839181 77492,6917.883,95.438,540.841,538.655,0.0
54051.0,STARLINK-5195,PAYLOAD,2024-03-12 19:00:31,15.08841746,0.0001697,53.2201,7.5409,99.8914,260.227,0.00014035,1.946e-05,0.0,0 STARLINK-5195,1 54051U 22136A   24072.79203442  .00001946  00000-0  14035-3 0  9991,2 54051  53.2201   7.5409 0001697  99.8914 260.2270 15.08841746 77106,6917.875,95.437,540.914,538.566,0.0
54051.0,STARLINK-5195,PAYLOAD,2024-03-13 12:29:46,15.08852467,0.0001622,53.2197,4.2667,89.2557,270.8621,0.00034519,5.212e-05,0.0,0 STARLINK-5195,1 54051U 22136A   24073.52067146  .00005212  00000-0  34519-3 0  9991,2 54051  53.2197   4.2667 0001622  89.2557 270.8621 15.08852467 77697,6917.842,95.437,540.829,538.585,0.0
54051.0,STARLINK-5195,PAYLOAD,2024-03-14 04:23:37,15.08859276,0.0001482,53.2185,1.2897,84.568,275.5482,0.00048691,7.474e-05,0.0,0 STARLINK-5195,1 54051U 22136A   24074.18306771  .00007474  00000-0  48691-3 0  9992,2 54051  53.2185   1.2897 0001482  84.5680 275.5482 15.08859276 77316,6917.821,95.436,540.712,538.661,0.0
54051.0,STARLINK-5195,PAYLOAD,2024-03-15 01:03:37,15.08847539,0.0002331,53.2176,357.4241,157.3815,202.7281,1.9632e-06,-2.57e-06,0.0,0 STARLINK-5195,1 54051U 22136A   24075.04418199 -.00000257  00000-0  19632-5 0  9994,2 54051  53.2176 357.4241 0002331 157.3815 202.7281 15.08847539 77923,6917.857,95.437,541.335,538.11,0.0
54051.0,STARLINK-5195,PAYLOAD,2024-03-15 18:32:52,15.08835074,0.0001105,53.2174,354.1561,54.3054,305.8041,1.8783e-05,1.1e-07,0.0,0 STARLINK-5195,1 54051U 22136A   24075.77283494  .00000011  00000-0  18783-4 0  9994,2 54051  53.2174 354.1561 0001105  54.3054 305.8041 15.08835074 78032,6917.895,95.438,540.525,538.996,0.0
54051.0,STARLINK-5195,PAYLOAD,2024-03-16 00:54:25,15.08842624,0.0001517,53.2172,352.9657,127.6357,232.4773,-3.2316e-05,-8.02e-06,0.0,0 STARLINK-5195,1 54051U 22136A   24076.03779045 -.00000802  00000-0 -32316-4 0  9994,2 54051  53.2172 352.9657 0001517 127.6357 232.4773 15.08842624 78079,6917.872,95.437,540.787,538.688,0.0
54051.0,STARLINK-5195,PAYLOAD,2024-03-16 21:34:26,15.08838932,0.0001393,53.2176,349.1003,99.3067,260.8082,0.00021836,3.189e-05,0.0,0 STARLINK-5195,1 54051U 22136A   24076.89891486  .00003189  00000-0  21836-3 0  9995,2 54051  53.2176 349.1003 0001393  99.3067 260.8082 15.08838932 77727,6917.884,95.438,540.712,538.785,0.0
